start=new Date('2022-01-11T00:00:00.000Z').valueOf();
sats=[{"OBJECT_ID":"2021-115C","PERIAPSIS":"538.312","MEAN_MOTION_DOT":"-0.00011731","INCLINATION":"53.2155","PERIOD":"95.437","TLE_LINE2":"2 49726  53.2155 137.1441 0002028  41.6167 190.4984 15.08849923  3624","MEAN_ANOMALY":"190.4984","GP_ID":"193627127","SITE":"AFETR","TLE_LINE1":"1 49726U 21115C   22010.91667824 -.00011731  00000-0 -71993-3 0  9993","BSTAR":"-0.00071993000000","OBJECT_NAME":"STARLINK-3237","RCS_SIZE":"LARGE","MEAN_MOTION_DDOT":"0.0000000000000","FILE":"3269118","REF_FRAME":"TEME","OBJECT_TYPE":"PAYLOAD","RA_OF_ASC_NODE":"137.1441","MEAN_MOTION":"15.08849923","CENTER_NAME":"EARTH","ARG_OF_PERICENTER":"41.6167","CLASSIFICATION_TYPE":"U","EPOCH":"2022-01-10T22:00:00.999936","LAUNCH_DATE":"2021-12-02","COUNTRY_CODE":"US","APOAPSIS":"541.118","ELEMENT_SET_NO":"999","MEAN_ELEMENT_THEORY":"SGP4","NORAD_CAT_ID":"49726","DECAY_DATE":null,"ECCENTRICITY":"0.00020280","SEMIMAJOR_AXIS":"6917.850","REV_AT_EPOCH":"362","EPHEMERIS_TYPE":"0","TIME_SYSTEM":"UTC"},{"RCS_SIZE":"LARGE","TLE_LINE1":"1 49727U 21115D   22010.91667824 -.00024814  00000-0 -15461-2 0  9997","BSTAR":"-0.00154610000000","OBJECT_NAME":"STARLINK-3242","REF_FRAME":"TEME","OBJECT_TYPE":"PAYLOAD","MEAN_MOTION_DDOT":"0.0000000000000","FILE":"3269118","PERIAPSIS":"538.342","MEAN_MOTION_DOT":"-0.00024814","INCLINATION":"53.2149","OBJECT_ID":"2021-115D","GP_ID":"193627379","SITE":"AFETR","PERIOD":"95.437","TLE_LINE2":"2 49727  53.2149 137.1583 0002010  36.3883 175.7546 15.08844319  3626","MEAN_ANOMALY":"175.7546","LAUNCH_DATE":"2021-12-02","APOAPSIS":"541.123","COUNTRY_CODE":"US","ELEMENT_SET_NO":"999","EPOCH":"2022-01-10T22:00:00.999936","DECAY_DATE":null,"REV_AT_EPOCH":"362","SEMIMAJOR_AXIS":"6917.867","ECCENTRICITY":"0.00020100","EPHEMERIS_TYPE":"0","TIME_SYSTEM":"UTC","NORAD_CAT_ID":"49727","MEAN_ELEMENT_THEORY":"SGP4","ARG_OF_PERICENTER":"36.3883","RA_OF_ASC_NODE":"137.1583","MEAN_MOTION":"15.08844319","CENTER_NAME":"EARTH","CLASSIFICATION_TYPE":"U"},{"OBJECT_ID":"2021-115E","INCLINATION":"53.2154","MEAN_MOTION_DOT":"-0.00008452","PERIAPSIS":"538.339","MEAN_ANOMALY":"156.9570","PERIOD":"95.438","TLE_LINE2":"2 49728  53.2154 137.1595 0002053  35.1796 156.9570 15.08835321  3613","SITE":"AFETR","GP_ID":"193627629","OBJECT_NAME":"STARLINK-3240","BSTAR":"-0.00051360000000","TLE_LINE1":"1 49728U 21115E   22010.91667824 -.00008452  00000-0 -51360-3 0  9997","RCS_SIZE":"LARGE","FILE":"3269118","MEAN_MOTION_DDOT":"0.0000000000000","OBJECT_TYPE":"PAYLOAD","REF_FRAME":"TEME","CENTER_NAME":"EARTH","MEAN_MOTION":"15.08835321","RA_OF_ASC_NODE":"137.1595","ARG_OF_PERICENTER":"35.1796","CLASSIFICATION_TYPE":"U","EPOCH":"2022-01-10T22:00:00.999936","ELEMENT_SET_NO":"999","APOAPSIS":"541.180","COUNTRY_CODE":"US","LAUNCH_DATE":"2021-12-02","MEAN_ELEMENT_THEORY":"SGP4","NORAD_CAT_ID":"49728","TIME_SYSTEM":"UTC","EPHEMERIS_TYPE":"0","REV_AT_EPOCH":"361","DECAY_DATE":null,"SEMIMAJOR_AXIS":"6917.895","ECCENTRICITY":"0.00020530"},{"TIME_SYSTEM":"UTC","DECAY_DATE":null,"SEMIMAJOR_AXIS":"6917.893","ECCENTRICITY":"0.00021090","REV_AT_EPOCH":"361","EPHEMERIS_TYPE":"0","MEAN_ELEMENT_THEORY":"SGP4","NORAD_CAT_ID":"49729","APOAPSIS":"541.216","COUNTRY_CODE":"US","ELEMENT_SET_NO":"999","LAUNCH_DATE":"2021-12-02","EPOCH":"2022-01-10T22:00:00.999936","CLASSIFICATION_TYPE":"U","ARG_OF_PERICENTER":"35.2777","MEAN_MOTION":"15.08836033","CENTER_NAME":"EARTH","RA_OF_ASC_NODE":"137.1607","OBJECT_TYPE":"PAYLOAD","REF_FRAME":"TEME","FILE":"3269118","MEAN_MOTION_DDOT":"0.0000000000000","RCS_SIZE":"LARGE","OBJECT_NAME":"STARLINK-3251","TLE_LINE1":"1 49729U 21115F   22010.91667824 -.00007218  00000-0 -43586-3 0  9998","BSTAR":"-0.00043586000000","GP_ID":"193626878","SITE":"AFETR","TLE_LINE2":"2 49729  53.2167 137.1607 0002109  35.2777 136.8699 15.08836033  3614","PERIOD":"95.438","MEAN_ANOMALY":"136.8699","MEAN_MOTION_DOT":"-0.00007218","INCLINATION":"53.2167","PERIAPSIS":"538.299","OBJECT_ID":"2021-115F"},{"ARG_OF_PERICENTER":"42.4681","RA_OF_ASC_NODE":"137.1664","CENTER_NAME":"EARTH","MEAN_MOTION":"15.08835375","CLASSIFICATION_TYPE":"U","LAUNCH_DATE":"2021-12-02","ELEMENT_SET_NO":"999","APOAPSIS":"541.142","COUNTRY_CODE":"US","EPOCH":"2022-01-10T22:00:00.999936","EPHEMERIS_TYPE":"0","REV_AT_EPOCH":"361","DECAY_DATE":null,"SEMIMAJOR_AXIS":"6917.895","ECCENTRICITY":"0.00019980","TIME_SYSTEM":"UTC","MEAN_ELEMENT_THEORY":"SGP4","NORAD_CAT_ID":"49730","PERIAPSIS":"538.377","INCLINATION":"53.2181","MEAN_MOTION_DOT":"-0.00006790","OBJECT_ID":"2021-115G","SITE":"AFETR","GP_ID":"193626628","MEAN_ANOMALY":"89.6895","TLE_LINE2":"2 49730  53.2181 137.1664 0001998  42.4681  89.6895 15.08835375  3615","PERIOD":"95.438","RCS_SIZE":"LARGE","BSTAR":"-0.00040896000000","TLE_LINE1":"1 49730U 21115G   22010.91667824 -.00006790  00000-0 -40896-3 0  9995","OBJECT_NAME":"STARLINK-3249","REF_FRAME":"TEME","OBJECT_TYPE":"PAYLOAD","MEAN_MOTION_DDOT":"0.0000000000000","FILE":"3269118"},{"SEMIMAJOR_AXIS":"6917.870","DECAY_DATE":null,"REV_AT_EPOCH":"361","ECCENTRICITY":"0.00022110","EPHEMERIS_TYPE":"0","TIME_SYSTEM":"UTC","MEAN_ELEMENT_THEORY":"SGP4","NORAD_CAT_ID":"49731","LAUNCH_DATE":"2021-12-02","COUNTRY_CODE":"US","APOAPSIS":"541.265","ELEMENT_SET_NO":"999","EPOCH":"2022-01-10T22:00:00.999936","CLASSIFICATION_TYPE":"U","ARG_OF_PERICENTER":"43.7624","RA_OF_ASC_NODE":"137.1634","MEAN_MOTION":"15.08843375","CENTER_NAME":"EARTH","REF_FRAME":"TEME","OBJECT_TYPE":"PAYLOAD","MEAN_MOTION_DDOT":"0.0000000000000","FILE":"3269118","RCS_SIZE":"LARGE","TLE_LINE1":"1 49731U 21115H   22010.91667824 -.00006588  00000-0 -39615-3 0  9998","BSTAR":"-0.00039615000000","OBJECT_NAME":"STARLINK-3228","SITE":"AFETR","GP_ID":"193627879","PERIOD":"95.437","TLE_LINE2":"2 49731  53.2176 137.1634 0002211  43.7624 108.3829 15.08843375  3612","MEAN_ANOMALY":"108.3829","PERIAPSIS":"538.206","INCLINATION":"53.2176","MEAN_MOTION_DOT":"-0.00006588","OBJECT_ID":"2021-115H"},{"OBJECT_ID":"2021-115J","PERIAPSIS":"538.220","MEAN_MOTION_DOT":"-0.00032966","INCLINATION":"53.2017","PERIOD":"95.437","TLE_LINE2":"2 49732  53.2017 137.2624 0002158  42.4959  29.6267 15.08850558  3616","MEAN_ANOMALY":"29.6267","SITE":"AFETR","GP_ID":"193628129","BSTAR":"-0.00206200000000","TLE_LINE1":"1 49732U 21115J   22010.91667824 -.00032966  00000-0 -20620-2 0  9993","OBJECT_NAME":"STARLINK-3246","RCS_SIZE":"LARGE","MEAN_MOTION_DDOT":"0.0000000000000","FILE":"3269118","REF_FRAME":"TEME","OBJECT_TYPE":"PAYLOAD","RA_OF_ASC_NODE":"137.2624","MEAN_MOTION":"15.08850558","CENTER_NAME":"EARTH","ARG_OF_PERICENTER":"42.4959","CLASSIFICATION_TYPE":"U","EPOCH":"2022-01-10T22:00:00.999936","LAUNCH_DATE":"2021-12-02","COUNTRY_CODE":"US","APOAPSIS":"541.206","ELEMENT_SET_NO":"999","NORAD_CAT_ID":"49732","MEAN_ELEMENT_THEORY":"SGP4","DECAY_DATE":null,"SEMIMAJOR_AXIS":"6917.848","REV_AT_EPOCH":"361","ECCENTRICITY":"0.00021580","EPHEMERIS_TYPE":"0","TIME_SYSTEM":"UTC"},{"CLASSIFICATION_TYPE":"U","RA_OF_ASC_NODE":"137.1967","CENTER_NAME":"EARTH","MEAN_MOTION":"15.08847885","ARG_OF_PERICENTER":"38.4620","MEAN_ELEMENT_THEORY":"SGP4","NORAD_CAT_ID":"49733","EPHEMERIS_TYPE":"0","SEMIMAJOR_AXIS":"6917.856","DECAY_DATE":null,"REV_AT_EPOCH":"361","ECCENTRICITY":"0.00020240","TIME_SYSTEM":"UTC","EPOCH":"2022-01-10T22:00:00.999936","LAUNCH_DATE":"2021-12-02","ELEMENT_SET_NO":"999","APOAPSIS":"541.121","COUNTRY_CODE":"US","MEAN_ANOMALY":"73.6146","TLE_LINE2":"2 49733  53.2124 137.1967 0002024  38.4620  73.6146 15.08847885  3611","PERIOD":"95.437","GP_ID":"193626379","SITE":"AFETR","OBJECT_ID":"2021-115K","PERIAPSIS":"538.321","INCLINATION":"53.2124","MEAN_MOTION_DOT":"-0.00007681","MEAN_MOTION_DDOT":"0.0000000000000","FILE":"3269118","REF_FRAME":"TEME","OBJECT_TYPE":"PAYLOAD","BSTAR":"-0.00046490000000","TLE_LINE1":"1 49733U 21115K   22010.91667824 -.00007681  00000-0 -46490-3 0  9994","OBJECT_NAME":"STARLINK-3252","RCS_SIZE":"LARGE"},{"CLASSIFICATION_TYPE":"U","CENTER_NAME":"EARTH","MEAN_MOTION":"15.40427536","RA_OF_ASC_NODE":"133.6327","ARG_OF_PERICENTER":"29.0642","NORAD_CAT_ID":"49734","MEAN_ELEMENT_THEORY":"SGP4","TIME_SYSTEM":"UTC","EPHEMERIS_TYPE":"0","DECAY_DATE":null,"SEMIMAJOR_AXIS":"6822.984","REV_AT_EPOCH":"727","ECCENTRICITY":"0.00019310","EPOCH":"2022-01-10T22:00:00.999936","ELEMENT_SET_NO":"999","COUNTRY_CODE":"US","APOAPSIS":"446.166","LAUNCH_DATE":"2021-12-02","MEAN_ANOMALY":"191.1705","PERIOD":"93.481","TLE_LINE2":"2 49734  53.2148 133.6327 0001931  29.0642 191.1705 15.40427536  7271","GP_ID":"193600851","SITE":"AFETR","OBJECT_ID":"2021-115L","INCLINATION":"53.2148","MEAN_MOTION_DOT":"-0.00038317","PERIAPSIS":"443.531","FILE":"3269008","MEAN_MOTION_DDOT":"0.0000000000000","OBJECT_TYPE":"PAYLOAD","REF_FRAME":"TEME","OBJECT_NAME":"STARLINK-3238","BSTAR":"-0.00092760000000","TLE_LINE1":"1 49734U 21115L   22010.91667824 -.00038317  00000-0 -92760-3 0  9996","RCS_SIZE":"LARGE"},{"SITE":"AFETR","GP_ID":"193627380","MEAN_ANOMALY":"56.8711","PERIOD":"95.437","TLE_LINE2":"2 49735  53.2057 137.2316 0001966  35.2255  56.8711 15.08850583  3610","MEAN_MOTION_DOT":"-0.00008542","INCLINATION":"53.2057","PERIAPSIS":"538.353","OBJECT_ID":"2021-115M","OBJECT_TYPE":"PAYLOAD","REF_FRAME":"TEME","FILE":"3269118","MEAN_MOTION_DDOT":"0.0000000000000","RCS_SIZE":"LARGE","OBJECT_NAME":"STARLINK-3113","BSTAR":"-0.00051902000000","TLE_LINE1":"1 49735U 21115M   22010.91667824 -.00008542  00000-0 -51902-3 0  9997","CLASSIFICATION_TYPE":"U","ARG_OF_PERICENTER":"35.2255","CENTER_NAME":"EARTH","MEAN_MOTION":"15.08850583","RA_OF_ASC_NODE":"137.2316","TIME_SYSTEM":"UTC","EPHEMERIS_TYPE":"0","SEMIMAJOR_AXIS":"6917.848","DECAY_DATE":null,"REV_AT_EPOCH":"361","ECCENTRICITY":"0.00019660","MEAN_ELEMENT_THEORY":"SGP4","NORAD_CAT_ID":"49735","ELEMENT_SET_NO":"999","APOAPSIS":"541.073","COUNTRY_CODE":"US","LAUNCH_DATE":"2021-12-02","EPOCH":"2022-01-10T22:00:00.999936"}];
